NORAD_CAT_ID,OBJECT_NAME,OBJECT_TYPE,EPOCH,MEAN_MOTION,ECCENTRICITY,INCLINATION,RA_OF_ASC_NODE,ARG_OF_PERICENTER,MEAN_ANOMALY,BSTAR,MEAN_MOTION_DOT,MEAN_MOTION_DDOT,TLE_LINE0,TLE_LINE1,TLE_LINE2,SEMIMAJOR_AXIS,PERIOD,APOGEE,PERIGEE,DECAYED
52618.0,STARLINK-3983,PAYLOAD,2023-06-25 07:32:42,15.088394,0.0001064,53.2184,26.1082,87.2978,272.8136,4.615e-06,-2.14e-06,0.0,0 STARLINK-3983,1 52618U 22052W   23176.31437784 -.00000214  00000-0  46150-5 0  9998,2 52618  53.2184  26.1082 0001064  87.2978 272.8136 15.08839400 62159,6917.882,95.438,540.483,539.011,0.0
52618.0,STARLINK-3983,PAYLOAD,2023-06-26 16:55:48,15.08836092,0.0001181,53.2169,19.8632,95.4979,264.6147,1.5732e-05,-3.7e-07,0.0,0 STARLINK-3983,1 52618U 22052W   23177.70542301 -.00000037  00000-0  15732-4 0  9998,2 52618  53.2169  19.8632 0001181  95.4979 264.6147 15.08836092 62362,6917.892,95.438,540.574,538.94,0.0
52618.0,STARLINK-3983,PAYLOAD,2023-06-27 19:57:21,15.0884397,0.000112,53.2182,14.8095,85.7656,274.3464,0.00023953,3.527e-05,0.0,0 STARLINK-3983,1 52618U 22052W   23178.83150355  .00003527  00000-0  23953-3 0  9996,2 52618  53.2182  14.8095 0001120  85.7656 274.3464 15.08843970 62534,6917.868,95.437,540.508,538.958,0.0
52618.0,STARLINK-3983,PAYLOAD,2023-06-28 05:29:40,15.08838509,9.65e-05,53.2178,13.0251,94.7534,265.3568,9.4188e-05,1.212e-05,0.0,0 STARLINK-3983,1 52618U 22052W   23179.22894508  .00001212  00000-0  94188-4 0  9993,2 52618  53.2178  13.0251 0000965  94.7534 265.3568 15.08838509 62598,6917.885,95.438,540.418,539.082,0.0
52618.0,STARLINK-3983,PAYLOAD,2023-06-28 22:58:55,15.08848991,0.0001082,53.218,9.7549,88.471,271.6406,0.00023373,3.435e-05,0.0,0 STARLINK-3983,1 52618U 22052W   23179.95758112  .00003435  00000-0  23373-3 0  9999,2 52618  53.2180   9.7549 0001082  88.4710 271.6406 15.08848991 62700,6917.853,95.437,540.466,538.969,0.0
52618.0,STARLINK-3983,PAYLOAD,2023-06-29 18:03:32,15.08841132,0.0001045,53.2178,6.1835,98.6122,261.4989,5.2026e-05,5.4e-06,0.0,0 STARLINK-3983,1 52618U 22052W   23180.75246272  .00000540  00000-0  52026-4 0  9990,2 52618  53.2178   6.1835 0001045  98.6122 261.4989 15.08841132 62821,6917.877,95.437,540.465,539.019,0.0
52618.0,STARLINK-3983,PAYLOAD,2023-06-30 19:29:42,15.08847477,9.99e-05,53.2172,1.4274,97.9918,262.1187,0.00015062,2.111e-05,0.0,0 STARLINK-3983,1 52618U 22052W   23181.81230063  .00002111  00000-0  15062-3 0  9993,2 52618  53.2172   1.4274 0000999  97.9918 262.1187 15.08847477 62985,6917.858,95.437,540.414,539.031,0.0
52618.0,STARLINK-3983,PAYLOAD,2023-07-01 05:02:01,15.08841995,0.0001037,53.2176,359.6427,76.2446,283.8662,0.00010072,1.316e-05,0.0,0 STARLINK-3983,1 52618U 22052W   23182.20974184  .00001316  00000-0  10072-3 0  9998,2 52618  53.2176 359.6427 0001037  76.2446 283.8662 15.08841995 63042,6917.874,95.437,540.457,539.022,0.0
52618.0,STARLINK-3983,PAYLOAD,2023-07-01 17:45:07,15.0883565,9.2e-05,53.2178,357.2647,90.7525,269.3573,3.5657e-05,2.8e-06,0.0,0 STARLINK-3983,1 52618U 22052W   23182.73966800  .00000280  00000-0  35657-4 0  9998,2 52618  53.2178 357.2647 0000920  90.7525 269.3573 15.08835650 63121,6917.894,95.438,540.395,539.122,0.0
52618.0,STARLINK-3983,PAYLOAD,2023-07-01 20:55:53,15.08844135,0.0001072,53.2172,356.6696,86.941,273.1704,0.00017782,2.544e-05,0.0,0 STARLINK-3983,1 52618U 22052W   23182.87214391  .00002544  00000-0  17782-3 0  9997,2 52618  53.2172 356.6696 0001072  86.9410 273.1704 15.08844135 63140,6917.868,95.437,540.474,538.991,0.0
52618.0,STARLINK-3983,PAYLOAD,2023-07-02 11:14:21,15.08837114,0.0001142,53.2177,353.9936,84.4201,275.6922,5.0909e-05,5.22e-06,0.0,0 STARLINK-3983,1 52618U 22052W   23183.46830816  .00000522  00000-0  50909-4 0  9992,2 52618  53.2177 353.9936 0001142  84.4201 275.6922 15.08837114 63239,6917.889,95.438,540.544,538.964,0.0
52618.0,STARLINK-3983,PAYLOAD,2023-07-02 20:46:40,15.08845793,0.0001015,53.2174,352.2088,86.9732,273.1376,0.00016088,2.274e-05,0.0,0 STARLINK-3983,1 52618U 22052W   23183.86574495  .00002274  00000-0  16088-3 0  9999,2 52618  53.2174 352.2088 0001015  86.9732 273.1376 15.08845793 63295,6917.863,95.437,540.43,539.026,0.0
52618.0,STARLINK-3983,PAYLOAD,2023-07-03 11:05:09,15.0883165,0.0001267,53.2175,349.5327,96.4033,263.7103,5.0646e-05,5.18e-06,0.0,0 STARLINK-3983,1 52618U 22052W   23184.46191035  .00000518  00000-0  50646-4 0  9999,2 52618  53.2175 349.5327 0001267  96.4033 263.7103 15.08831650 63380,6917.906,95.438,540.647,538.894,0.0
52618.0,STARLINK-3983,PAYLOAD,2023-07-03 17:26:41,15.08840021,0.0001382,53.2173,348.3433,95.6782,264.4367,7.5855e-05,9.2e-06,0.0,0 STARLINK-3983,1 52618U 22052W   23184.72686669  .00000920  00000-0  75855-4 0  9996,2 52618  53.2173 348.3433 0001382  95.6782 264.4367 15.08840021 63420,6917.88,95.438,540.701,538.789,0.0
52618.0,STARLINK-3983,PAYLOAD,2023-07-05 17:08:15,15.08841342,0.0001445,53.2179,339.4247,94.8012,265.3145,0.00026838,3.986e-05,0.0,0 STARLINK-3983,1 52618U 22052W   23186.71407291  .00003986  00000-0  26838-3 0  9990,2 52618  53.2179 339.4247 0001445  94.8012 265.3145 15.08841342 63721,6917.876,95.437,540.741,538.742,0.0
52618.0,STARLINK-3983,PAYLOAD,2023-07-07 02:31:21,15.08839233,0.0001284,53.2174,333.1797,89.5634,270.5505,0.00026216,3.887e-05,0.0,0 STARLINK-3983,1 52618U 22052W   23188.10511570  .00003887  00000-0  26216-3 0  9991,2 52618  53.2174 333.1797 0001284  89.5634 270.5505 15.08839233 63936,6917.883,95.438,540.636,538.859,0.0
52618.0,STARLINK-3983,PAYLOAD,2023-07-08 10:19:04,15.08838634,0.0001293,53.219,327.233,87.7067,272.4074,1.0657e-05,-1.18e-06,0.0,0 STARLINK-3983,1 52618U 22052W   23189.42991367 -.00000118  00000-0  10657-4 0  9991,2 52618  53.2190 327.2330 0001293  87.7067 272.4074 15.08838634 64130,6917.885,95.438,540.644,538.855,0.0
52618.0,STARLINK-3983,PAYLOAD,2023-07-09 16:31:24,15.08841455,0.0001116,53.218,321.5809,87.8472,272.2648,-1.2012e-05,-4.79e-06,0.0,0 STARLINK-3983,1 52618U 22052W   23190.68847681 -.00000479  00000-0 -12012-4 0  9998,2 52618  53.2180 321.5809 0001116  87.8472 272.2648 15.08841455 64323,6917.876,95.437,540.513,538.969,0.0
52618.0,STARLINK-3983,PAYLOAD,2023-07-11 01:54:29,15.08847543,0.0001082,53.2179,315.3374,87.39,272.7216,3.2324e-05,2.27e-06,0.0,0 STARLINK-3983,1 52618U 22052W   23192.07950980  .00000227  00000-0  32324-4 0  9997,2 52618  53.2179 315.3374 0001082  87.3900 272.7216 15.08847543 64535,6917.857,95.437,540.471,538.974,0.0
52618.0,STARLINK-3983,PAYLOAD,2023-07-11 08:16:02,15.08830976,0.0001103,53.2182,314.1482,88.7518,271.36,0.00017512,2.5e-05,0.0,0 STARLINK-3983,1 52618U 22052W   23192.34447795  .00002500  00000-0  17512-3 0  9999,2 52618  53.2182 314.1482 0001103  88.7518 271.3600 15.08830976 64578,6917.908,95.438,540.536,539.01,0.0
52618.0,STARLINK-3983,PAYLOAD,2023-07-11 14:37:35,15.08840053,0.0001146,53.2182,312.9588,89.0975,271.0148,0.00010396,1.367e-05,0.0,0 STARLINK-3983,1 52618U 22052W   23192.60943454  .00001367  00000-0  10396-3 0  9994,2 52618  53.2182 312.9588 0001146  89.0975 271.0148 15.08840053 64615,6917.88,95.438,540.538,538.952,0.0
52618.0,STARLINK-3983,PAYLOAD,2023-07-13 12:43:46,15.08833206,0.0001128,53.218,304.3365,89.4306,270.6815,-1.6164e-06,-3.14e-06,0.0,0 STARLINK-3983,1 52618U 22052W   23194.53040118 -.00000314  00000-0 -16164-5 0  9997,2 52618  53.2180 304.3365 0001128  89.4306 270.6815 15.08833206 64903,6917.901,95.438,540.546,538.986,0.0
52618.0,STARLINK-3983,PAYLOAD,2023-07-14 14:09:56,15.08827449,0.0001037,53.2182,299.5784,80.6332,279.4777,0.00025885,3.833e-05,0.0,0 STARLINK-3983,1 52618U 22052W   23195.59024110  .00003833  00000-0  25885-3 0  9993,2 52618  53.2182 299.5784 0001037  80.6332 279.4777 15.08827449 65060,6917.919,95.438,540.501,539.066,0.0
52618.0,STARLINK-3983,PAYLOAD,2023-07-14 23:42:15,15.08854323,0.000117,53.2185,297.7944,101.045,259.0673,-0.00018857,-3.289e-05,0.0,0 STARLINK-3983,1 52618U 22052W   23195.98767473 -.00003289  00000-0 -18857-3 0  9990,2 52618  53.2185 297.7944 0001170 101.0450 259.0673 15.08854323 65125,6917.837,95.437,540.511,538.892,0.0
52618.0,STARLINK-3983,PAYLOAD,2023-07-15 06:03:48,15.08836296,0.0001154,53.2183,296.6046,99.1442,260.9681,0.00010032,1.309e-05,0.0,0 STARLINK-3983,1 52618U 22052W   23196.25264062  .00001309  00000-0  10032-3 0  9993,2 52618  53.2183 296.6046 0001154  99.1442 260.9681 15.08836296 65167,6917.892,95.438,540.555,538.958,0.0
52618.0,STARLINK-3983,PAYLOAD,2023-07-16 07:29:59,15.08831634,0.0002224,53.2192,291.8465,110.8285,249.2946,3.7436e-05,3.07e-06,0.0,0 STARLINK-3983,1 52618U 22052W   23197.31248856  .00000307  00000-0  37436-4 0  9999,2 52618  53.2192 291.8465 0002224 110.8285 249.2946 15.08831634 65327,6917.906,95.438,541.31,538.232,0.0
52618.0,STARLINK-3983,PAYLOAD,2023-07-17 13:42:18,15.08843933,0.0001208,53.2174,286.1956,89.9581,270.155,5.7962e-05,6.35e-06,0.0,0 STARLINK-3983,1 52618U 22052W   23198.57104388  .00000635  00000-0  57962-4 0  9999,2 52618  53.2174 286.1956 0001208  89.9581 270.1550 15.08843933 65515,6917.868,95.437,540.569,538.898,0.0
52618.0,STARLINK-3983,PAYLOAD,2023-07-18 10:22:15,15.08929939,0.0001727,53.2176,282.3304,70.0561,290.0618,-0.0010566,-0.00017106,0.0,0 STARLINK-3983,1 52618U 22052W   23199.43212673 -.00017106  00000-0 -10566-2 0  9992,2 52618  53.2176 282.3304 0001727  70.0561 290.0618 15.08929939 65648,6917.605,95.432,540.665,538.276,0.0
52618.0,STARLINK-3983,PAYLOAD,2023-07-18 11:57:41,15.08850643,0.0001213,53.2174,282.0332,85.9361,274.177,0.00018721,2.694e-05,0.0,0 STARLINK-3983,1 52618U 22052W   23199.49839574  .00002694  00000-0  18721-3 0  9999,2 52618  53.2174 282.0332 0001213  85.9361 274.1770 15.08850643 65655,6917.848,95.437,540.552,538.874,0.0
52618.0,STARLINK-3983,PAYLOAD,2023-07-19 10:13:06,15.08830925,0.0001223,53.2165,277.8717,83.0278,277.0854,-6.3331e-05,-1.295e-05,0.0,0 STARLINK-3983,1 52618U 22052W   23200.42577126 -.00001295  00000-0 -63331-4 0  9993,2 52618  53.2165 277.8717 0001223  83.0278 277.0854 15.08830925 65792,6917.908,95.438,540.619,538.927,0.0
